CUTE-1 (CO-55)          
1 27844U 03031E   26063.99746414  .00000438  00000+0  20884-3 0  9992
2 27844  98.6779  73.8545 0010529 124.7056 235.5116 14.24261503176844
CUBESAT XI-IV (CO-57)   
1 27848U 03031J   26062.94998598  .00000409  00000+0  19861-3 0  9993
2 27848  98.6808  72.6171 0010137 144.0340 216.1522 14.23556668176405
CUBESAT XI-V            
1 28895U 05043F   26063.89060449  .00002715  00000+0  43726-3 0  9990
2 28895  98.2820 217.4242 0014463 172.5455 187.5969 14.72293633 86405
CUTE-1.7+APD II (CO-65) 
1 32785U 08021C   26064.20244243  .00008844  00000+0  57356-3 0  9997
2 32785  97.8205  43.5935 0010213  33.5486 326.6386 15.08295688969519
CANX-2                  
1 32790U 08021H   26063.98584331  .00006394  00000+0  45751-3 0  9996
2 32790  97.8562  41.8586 0012062  44.8164 315.4034 15.04735256969136
SEEDS II (CO-66)        
1 32791U 08021J   26063.55452727  .00027773  00000+0  99192-3 0  9995
2 32791  97.7508  56.7719 0002344  16.0958 344.0355 15.28814513971286
SWISSCUBE               
1 35932U 09051B   26064.23496379  .00001765  00000+0  35985-3 0  9999
2 35932  98.4103 330.2989 0006767 165.9945 194.1445 14.62245193873966
BEESAT-1                
1 35933U 09051C   26064.19149259  .00001486  00000+0  30945-3 0  9998
2 35933  98.4034 330.1037 0004998 176.8961 183.2271 14.61520944873994
ITUPSAT1                
1 35935U 09051E   26064.22887407  .00001364  00000+0  29277-3 0  9999
2 35935  98.4120 329.4408 0006957 192.5039 167.5990 14.60257017873566
TISAT 1                 
1 36799U 10035E   26064.04044411  .00027432  00000+0  10243-2 0  9998
2 36799  98.0650   1.7537 0000542 169.4760 190.6489 15.27357031851781
AEROCUBE 4.5A           
1 38767U 12048K   26064.30474715  .00100707  00000+0  11277-2 0  9999
2 38767  64.6385  35.3155 0041501 213.3687 146.4843 15.61080860356300
STRAND-1                
1 39090U 13009E   26063.48172039  .00000561  00000+0  20324-3 0  9990
2 39090  98.3882 246.3029 0008692 176.9706 183.1535 14.37089808682020
BRITE-AUSTRIA           
1 39091U 13009F   26064.07705221  .00000314  00000+0  12152-3 0  9998
2 39091  98.3951 246.1000 0010079 184.8031 175.3061 14.36492856682102
NEE-01 PEGASO           
1 39151U 13018B   26063.94197000  .00005470  00000+0  53036-3 0  9994
2 39151  98.1044 204.7900 0013659 143.6805 216.5343 14.93048644695142
POPACS 2                
1 39269U 13055E   26063.86836884  .00031288  00000+0  54684-3 0  9992
2 39269  80.9888 263.3242 0431642 168.2297 192.9418 14.87505425647685
POPACS 3                
1 39270U 13055F   26064.06939072  .00018577  00000+0  44727-3 0  9993
2 39270  81.0060 341.9102 0561179  26.7386 336.1596 14.53795084623414
